{"type": "FeatureCollection", "features": [ {"type": "Feature", "properties": {"norad_id": 36614, "name": "COSMOS 2251 DEB", "group": "cosmos-2251-debris", "lat": 15.199833528052991, "lon": -161.0040010360407, "alt_km": 697.7911702613574, "timestamp": "2025-12-02T07:10:09.513752+00:00", "meta": {"OBJECT_NAME": "COSMOS 2251 DEB", "OBJECT_ID": "1993-036BEC", "EPOCH": "2025-11-29T08:23:05.068608", "MEAN_MOTION": 14.60020605, "ECCENTRICITY": 0.00167217, "INCLINATION": 74.0224, "RA_OF_ASC_NODE": 200.1619, "ARG_OF_PERICENTER": 270.7966, "MEAN_ANOMALY": 89.1284, "EPHEMERIS_TYPE": 0, "CLASSIFICATION_TYPE": "U", "NORAD_CAT_ID": 36614, "ELEMENT_SET_NO": 999, "REV_AT_EPOCH": 65417, "BSTAR": 0.0010676228, "MEAN_MOTION_DOT": 5.109e-05, "MEAN_MOTION_DDOT": 0}, "tle": {"line1": "1 36614U 93036BEC 25333.34936422  .00005109  00000+0  10676-2 0  9996", "line2": "2 36614  74.0224 200.1619 0016721 270.7966  89.1284 14.60020605654173"}}, "geometry": {"type": "Point", "coordinates": [-161.0040010360407, 15.199833528052991]}}, {"type": "Feature", "properties": {"norad_id": 36622, "name": "COSMOS 2251 DEB", "group": "cosmos-2251-debris", "lat": -19.583670873106957, "lon": -8.200065688940485, "alt_km": 657.2564612542928, "timestamp": "2025-12-02T07:10:09.513762+00:00", "meta": {"OBJECT_NAME": "COSMOS 2251 DEB", "OBJECT_ID": "1993-036BEL", "EPOCH": "2025-12-01T20:29:54.842208", "MEAN_MOTION": 14.76043702, "ECCENTRICITY": 0.0068663, "INCLINATION": 74.0123, "RA_OF_ASC_NODE": 166.8169, "ARG_OF_PERICENTER": 304.379, "MEAN_ANOMALY": 55.0902, "EPHEMERIS_TYPE": 0, "CLASSIFICATION_TYPE": "U", "NORAD_CAT_ID": 36622, "ELEMENT_SET_NO": 999, "REV_AT_EPOCH": 66589, "BSTAR": 0.00056696, "MEAN_MOTION_DOT": 4.027e-05, "MEAN_MOTION_DDOT": 0}, "tle": {"line1": "1 36622U 93036BEL 25335.85410697  .00004027  00000+0  56696-3 0  9995", "line2": "2 36622  74.0123 166.8169 0068663 304.3790  55.0902 14.76043702665899"}}, "geometry": {"type": "Point", "coordinates": [-8.200065688940485, -19.583670873106957]}}, {"type": "Feature", "properties": {"norad_id": 36632, "name": "COSMOS 2251 DEB", "group": "cosmos-2251-debris", "lat": 16.738959947513695, "lon": 126.85162379376462, "alt_km": 752.3837022924245, "timestamp": "2025-12-02T07:10:09.513772+00:00", "meta": {"OBJECT_NAME": "COSMOS 2251 DEB", "OBJECT_ID": "1993-036BEW", "EPOCH": "2025-12-01T05:27:55.216224", "MEAN_MOTION": 14.43069985, "ECCENTRICITY": 0.003148, "INCLINATION": 74.0013, "RA_OF_ASC_NODE": 313.794, "ARG_OF_PERICENTER": 64.7094, "MEAN_ANOMALY": 295.7318, "EPHEMERIS_TYPE": 0, "CLASSIFICATION_TYPE": "U", "NORAD_CAT_ID": 36632, "ELEMENT_SET_NO": 999, "REV_AT_EPOCH": 65049, "BSTAR": 0.00093196, "MEAN_MOTION_DOT": 3.119e-05, "MEAN_MOTION_DDOT": 0}, "tle": {"line1": "1 36632U 93036BEW 25335.22772241  .00003119  00000+0  93196-3 0  9990", "line2": "2 36632  74.0013 313.7940 0031480  64.7094 295.7318 14.43069985650498"}}, "geometry": {"type": "Point", "coordinates": [126.85162379376462, 16.738959947513695]}}, {"type": "Feature", "properties": {"norad_id": 37084, "name": "COSMOS 2251 DEB", "group": "cosmos-2251-debris", "lat": 24.376662217409773, "lon": -4.746045549436234, "alt_km": 587.71819298421, "timestamp": "2025-12-02T07:10:09.513782+00:00", "meta": {"OBJECT_NAME": "COSMOS 2251 DEB", "OBJECT_ID": "1993-036BFE", "EPOCH": "2025-12-01T06:28:31.045728", "MEAN_MOTION": 15.00732489, "ECCENTRICITY": 0.0098181, "INCLINATION": 74.0271, "RA_OF_ASC_NODE": 184.8055, "ARG_OF_PERICENTER": 268.0487, "MEAN_ANOMALY": 90.9454, "EPHEMERIS_TYPE": 0, "CLASSIFICATION_TYPE": "U", "NORAD_CAT_ID": 37084, "ELEMENT_SET_NO": 999, "REV_AT_EPOCH": 66095, "BSTAR": 0.00060454, "MEAN_MOTION_DOT": 8.458e-05, "MEAN_MOTION_DDOT": 0}, "tle": {"line1": "1 37084U 93036BFE 25335.26980377  .00008458  00000+0  60454-3 0  9999", "line2": "2 37084  74.0271 184.8055 0098181 268.0487  90.9454 15.00732489660954"}}, "geometry": {"type": "Point", "coordinates": [-4.746045549436234, 24.376662217409773]}}, {"type": "Feature", "properties": {"norad_id": 37085, "name": "COSMOS 2251 DEB", "group": "cosmos-2251-debris", "lat": 13.065622326782517, "lon": 54.910032129938386, "alt_km": 450.54170445568343, "timestamp": "2025-12-02T07:10:09.513792+00:00", "meta": {"OBJECT_NAME": "COSMOS 2251 DEB", "OBJECT_ID": "1993-036BFF", "EPOCH": "2025-11-28T11:55:49.113408", "MEAN_MOTION": 15.38117906, "ECCENTRICITY": 0.00226635, "INCLINATION": 73.9498, "RA_OF_ASC_NODE": 246.9762, "ARG_OF_PERICENTER": 85.7386, "MEAN_ANOMALY": 274.6409, "EPHEMERIS_TYPE": 0, "CLASSIFICATION_TYPE": "U", "NORAD_CAT_ID": 37085, "ELEMENT_SET_NO": 999, "REV_AT_EPOCH": 66918, "BSTAR": 0.0022192739, "MEAN_MOTION_DOT": 0.00084925, "MEAN_MOTION_DDOT": 0}, "tle": {"line1": "1 37085U 93036BFF 25332.49709622  .00084925  00000+0  22193-2 0  9994", "line2": "2 37085  73.9498 246.9762 0022663  85.7386 274.6409 15.38117906669180"}}, "geometry": {"type": "Point", "coordinates": [54.910032129938386, 13.065622326782517]}}, {"type": "Feature", "properties": {"norad_id": 37089, "name": "COSMOS 2251 DEB", "group": "cosmos-2251-debris", "lat": -7.752459297382876, "lon": 163.21675750956635, "alt_km": 709.8619212529857, "timestamp": "2025-12-02T07:10:09.513803+00:00", "meta": {"OBJECT_NAME": "COSMOS 2251 DEB", "OBJECT_ID": "1993-036BFK", "EPOCH": "2025-11-27T19:45:58.315104", "MEAN_MOTION": 14.52523041, "ECCENTRICITY": 0.0136019, "INCLINATION": 74.0379, "RA_OF_ASC_NODE": 173.8866, "ARG_OF_PERICENTER": 277.3049, "MEAN_ANOMALY": 81.267, "EPHEMERIS_TYPE": 0, "CLASSIFICATION_TYPE": "U", "NORAD_CAT_ID": 37089, "ELEMENT_SET_NO": 999, "REV_AT_EPOCH": 65893, "BSTAR": 0.0020033475, "MEAN_MOTION_DOT": 9.221e-05, "MEAN_MOTION_DDOT": 0}, "tle": {"line1": "1 37089U 93036BFK 25331.82359161  .00009221  00000+0  20033-2 0  9990", "line2": "2 37089  74.0379 173.8866 0136019 277.3049  81.2670 14.52523041658932"}}, "geometry": {"type": "Point", "coordinates": [163.21675750956635, -7.752459297382876]}}, {"type": "Feature", "properties": {"norad_id": 37094, "name": "COSMOS 2251 DEB", "group": "cosmos-2251-debris", "lat": -39.09110245481402, "lon": 126.91803795956613, "alt_km": 824.2894814711235, "timestamp": "2025-12-02T07:10:09.513812+00:00", "meta": {"OBJECT_NAME": "COSMOS 2251 DEB", "OBJECT_ID": "1993-036BFQ", "EPOCH": "2025-12-01T04:38:30.122016", "MEAN_MOTION": 14.37719988, "ECCENTRICITY": 0.0084296, "INCLINATION": 74.1075, "RA_OF_ASC_NODE": 142.3264, "ARG_OF_PERICENTER": 111.6851, "MEAN_ANOMALY": 249.3305, "EPHEMERIS_TYPE": 0, "CLASSIFICATION_TYPE": "U", "NORAD_CAT_ID": 37094, "ELEMENT_SET_NO": 999, "REV_AT_EPOCH": 84340, "BSTAR": 0.0011679, "MEAN_MOTION_DOT": 3.636e-05, "MEAN_MOTION_DDOT": 0}, "tle": {"line1": "1 37094U 93036BFQ 25335.19340419  .00003636  00000+0  11679-2 0  9996", "line2": "2 37094  74.1075 142.3264 0084296 111.6851 249.3305 14.37719988843405"}}, "geometry": {"type": "Point", "coordinates": [126.91803795956613, -39.09110245481402]}}, {"type": "Feature", "properties": {"norad_id": 37095, "name": "COSMOS 2251 DEB", "group": "cosmos-2251-debris", "lat": 71.01044771769654, "lon": -29.086008592280294, "alt_km": 1014.7250619920733, "timestamp": "2025-12-02T07:10:09.513822+00:00", "meta": {"OBJECT_NAME": "COSMOS 2251 DEB", "OBJECT_ID": "1993-036BFR", "EPOCH": "2025-11-28T22:16:06.284928", "MEAN_MOTION": 14.03292763, "ECCENTRICITY": 0.01969867, "INCLINATION": 73.845, "RA_OF_ASC_NODE": 214.2335, "ARG_OF_PERICENTER": 274.3091, "MEAN_ANOMALY": 83.5558, "EPHEMERIS_TYPE": 0, "CLASSIFICATION_TYPE": "U", "NORAD_CAT_ID": 37095, "ELEMENT_SET_NO": 999, "REV_AT_EPOCH": 62442, "BSTAR": 0.0014835194, "MEAN_MOTION_DOT": 2.723e-05, "MEAN_MOTION_DDOT": 0}, "tle": {"line1": "1 37095U 93036BFR 25332.92785052  .00002723  00000+0  14835-2 0  9994", "line2": "2 37095  73.8450 214.2335 0196986 274.3091  83.5558 14.03292763624427"}}, "geometry": {"type": "Point", "coordinates": [-29.086008592280294, 71.01044771769654]}}, {"type": "Feature", "properties": {"norad_id": 37108, "name": "COSMOS 2251 DEB", "group": "cosmos-2251-debris", "lat": 17.555123085963235, "lon": -85.30523440462639, "alt_km": 691.6464024497454, "timestamp": "2025-12-02T07:10:09.513832+00:00", "meta": {"OBJECT_NAME": "COSMOS 2251 DEB", "OBJECT_ID": "1993-036BGE", "EPOCH": "2025-11-29T08:26:41.390880", "MEAN_MOTION": 14.41078034, "ECCENTRICITY": 0.00928305, "INCLINATION": 74.0431, "RA_OF_ASC_NODE": 105.339, "ARG_OF_PERICENTER": 185.0618, "MEAN_ANOMALY": 174.961, "EPHEMERIS_TYPE": 0, "CLASSIFICATION_TYPE": "U", "NORAD_CAT_ID": 37108, "ELEMENT_SET_NO": 999, "REV_AT_EPOCH": 85314, "BSTAR": 0.001488902, "MEAN_MOTION_DOT": 5.021e-05, "MEAN_MOTION_DDOT": 0}, "tle": {"line1": "1 37108U 93036BGE 25333.35186795  .00005021  00000+0  14889-2 0  9999", "line2": "2 37108  74.0431 105.3390 0092830 185.0618 174.9610 14.41078034853143"}}, "geometry": {"type": "Point", "coordinates": [-85.30523440462639, 17.555123085963235]}}, {"type": "Feature", "properties": {"norad_id": 37126, "name": "COSMOS 2251 DEB", "group": "cosmos-2251-debris", "lat": -50.622966126840794, "lon": -5.534764089205605, "alt_km": 603.0300140214122, "timestamp": "2025-12-02T07:10:09.513842+00:00", "meta": {"OBJECT_NAME": "COSMOS 2251 DEB", "OBJECT_ID": "1993-036BGY", "EPOCH": "2025-11-27T19:49:48.379296", "MEAN_MOTION": 14.7298682, "ECCENTRICITY": 0.01235898, "INCLINATION": 73.9551, "RA_OF_ASC_NODE": 23.7462, "ARG_OF_PERICENTER": 265.0836, "MEAN_ANOMALY": 93.6217, "EPHEMERIS_TYPE": 0, "CLASSIFICATION_TYPE": "U", "NORAD_CAT_ID": 37126, "ELEMENT_SET_NO": 999, "REV_AT_EPOCH": 7879, "BSTAR": 0.00028630481, "MEAN_MOTION_DOT": 2.036e-05, "MEAN_MOTION_DDOT": 0}, "tle": {"line1": "1 37126U 93036BGY 25331.82625439  .00002036  00000+0  28630-3 0  9995", "line2": "2 37126  73.9551  23.7462 0123589 265.0836  93.6217 14.72986820 78799"}}, "geometry": {"type": "Point", "coordinates": [-5.534764089205605, -50.622966126840794]}}]}